{"type":"FeatureCollection","features":[{"type":"Feature","properties":{"mmi":3.0,"color":"#a0e5ff"},"geometry":{"type":"MultiLineString","coordinates":[[[-71.1056,21.3854],[-71.0549,21.4353],[-71.0446,21.4882],[-71.0613,21.5202],[-71.1112,21.5619],[-71.1777,21.5627],[-71.2301,21.5184],[-71.2491,21.4852],[-71.2473,21.4519],[-71.1777,21.3832],[-71.1056,21.3854]],[[-69.2387,19.0404],[-69.1483,19.1255],[-69.1042,19.24],[-69.1054,19.2899],[-69.121,19.3231],[-69.165,19.3664],[-69.2149,19.3852],[-69.2648,19.3839],[-69.3479,19.3483],[-69.4002,19.2899],[-69.424,19.2233],[-69.4207,19.1402],[-69.3491,19.057],[-69.298,19.0281],[-69.2648,19.0259],[-69.2387,19.0404]],[[-68.8333,18.2587],[-68.7158,18.3541],[-68.6659,18.3553],[-68.6211,18.3918],[-68.6204,18.4583],[-68.6661,18.5747],[-68.7158,18.6399],[-68.7491,18.6539],[-68.7824,18.6506],[-68.8205,18.6246],[-68.8363,18.5581],[-68.8822,18.4865],[-69.0274,18.425],[-69.0684,18.3751],[-69.0471,18.3086],[-68.9986,18.2761],[-68.8988,18.2429],[-68.8655,18.2422],[-68.8333,18.2587]],[[-76.8833,17.9413],[-76.8501,17.9375],[-76.7835,17.8942],[-76.7336,17.8962],[-76.6671,17.9276],[-76.6092,17.976],[-76.5734,18.0259],[-76.5711,18.0592],[-76.6029,18.1257],[-76.7004,18.1849],[-76.7503,18.1904],[-76.8833,18.1311]]]}},{"type":"Feature","properties":{"mmi":3.5,"color":"#90f2ff"},"geometry":{"type":"MultiLineString","coordinates":[[[-76.8833,21.3805],[-76.7835,21.3807],[-76.7669,21.3656],[-76.7336,21.3652],[-76.6671,21.317],[-76.6172,21.3004],[-76.5839,21.2683],[-76.5174,21.2675],[-76.5007,21.2517],[-76.4841,21.2681],[-76.4244,21.2689],[-76.3868,21.2856],[-76.3276,21.3188],[-76.0203,21.6182],[-75.7356,21.8505],[-75.4528,22.0451],[-75.0316,22.2834],[-75.015,22.3001],[-75.0112,22.3333]],[[-70.3394,22.3333],[-70.3168,22.2834],[-69.9135,22.0617],[-69.6307,21.8698],[-69.3646,21.6529],[-69.1064,21.402],[-68.9149,21.1858],[-68.6692,20.8532],[-68.4471,20.4707],[-68.3332,20.2124],[-68.3,20.188]],[[-71.0741,21.2357],[-70.9947,21.2654],[-70.9218,21.3188],[-70.8646,21.3854],[-70.8307,21.4685],[-70.8292,21.5849],[-70.8497,21.6515],[-70.9116,21.7385],[-70.9781,21.7925],[-71.1112,21.8371],[-71.2443,21.8375],[-71.3607,21.8145],[-71.4272,21.7893],[-71.4605,21.7566],[-71.5104,21.6243],[-71.6269,21.6219],[-71.6802,21.5849],[-71.6842,21.4685],[-71.6279,21.3854],[-71.5603,21.3345],[-71.2443,21.2382],[-71.0741,21.2357]],[[-75.2268,20.1048],[-75.2017,20.1214],[-75.1583,20.2046],[-75.1866,20.2318],[-75.2365,20.2467],[-75.2906,20.2212],[-75.3056,20.1879],[-75.2851,20.1214],[-75.2365,20.0982],[-75.2268,20.1048]],[[-76.8833,19.9471],[-76.7669,19.9549],[-76.6671,19.9996],[-76.534,20.0043],[-76.4841,20.0327],[-76.4712,20.0715],[-76.5046,20.1048],[-76.6005,20.1138],[-76.6671,20.0769],[-76.7669,20.1018],[-76.8833,20.1008]],[[-68.3,19.1773],[-68.4164,19.1664],[-68.5162,19.183],[-68.5828,19.2131],[-68.6493,19.2573],[-68.8415,19.4562],[-68.9285,19.5227],[-69.0152,19.5662],[-69.1151,19.5942],[-69.298,19.5926],[-69.4477,19.5473],[-69.5143,19.5141],[-69.5808,19.461],[-69.6242,19.4063],[-69.649,19.3397],[-69.6375,19.2067],[-69.6141,19.1305],[-69.5064,19.0238],[-69.4725,18.9739],[-69.4553,18.9073],[-69.4561,18.8075],[-69.4129,18.6911],[-69.3959,18.5913],[-69.3327,18.5082],[-69.3255,18.425],[-69.3426,18.3419],[-69.2481,18.223],[-69.1816,18.1565],[-69.0652,18.0715],[-68.8822,17.9906],[-68.7158,17.9547],[-68.3,17.9134]],[[-76.8833,17.5456],[-76.8168,17.5564],[-76.717,17.6053],[-76.5673,17.7059],[-76.4783,17.8097],[-76.4309,17.9261],[-76.3474,17.9926],[-76.326,18.0425],[-76.3677,18.1336],[-76.3882,18.2421],[-76.4675,18.3265],[-76.717,18.4443],[-76.8833,18.4389]],[[-68.3,16.89],[-68.3332,16.8656],[-68.4698,16.579],[-68.7158,16.1694],[-68.9714,15.8306],[-69.2814,15.4971],[-69.5642,15.2428],[-69.9145,14.9824],[-70.3294,14.7364],[-70.6111,14.5999],[-70.6358,14.5666]],[[-74.8621,14.5666],[-74.8856,14.5999],[-75.2199,14.7777],[-75.4694,14.9316],[-75.8021,15.1778],[-75.9812,15.3317],[-76.2038,15.5479],[-76.4009,15.7658],[-76.6644,16.1133],[-76.8334,16.3797],[-76.8833,16.401]]]}},{"type":"Feature","properties":{"mmi":4.0,"color":"#80ffff"},"geometry":{"type":"MultiLineString","coordinates":[[[-71.7599,21.717],[-71.7932,21.7167],[-71.8597,21.7474],[-71.9595,21.8167],[-72.0143,21.8677],[-72.0136,21.9009],[-71.9595,21.9351],[-71.8265,21.8384],[-71.7766,21.8307],[-71.7144,21.8011],[-71.6975,21.7845],[-71.6965,21.7346],[-71.7599,21.717]],[[-72.8578,15.8132],[-73.0907,15.8175],[-73.4234,15.8574],[-73.6729,15.9116],[-73.9557,16.0041],[-74.1886,16.1045],[-74.4713,16.2671],[-74.7209,16.4506],[-74.8647,16.579],[-75.0702,16.7965],[-75.2442,17.028],[-75.3995,17.2941],[-75.4791,17.4771],[-75.5603,17.7265],[-75.6053,17.9427],[-75.6712,18.5581],[-75.6506,18.8408],[-75.6136,19.0404],[-75.546,19.2233],[-75.4355,19.3896],[-75.2989,19.5061],[-75.0535,19.6469],[-74.9205,19.7424],[-74.7279,19.9551],[-74.6876,20.0271],[-74.5545,20.0932],[-74.5212,20.0951],[-74.4363,20.1547],[-74.4322,20.1879],[-74.3926,20.2378],[-74.3216,20.2752],[-74.2635,20.3542],[-74.1997,20.5871],[-74.1728,20.637],[-74.1111,20.7035],[-74.0721,20.7325],[-73.9889,20.7639],[-73.8891,20.7785],[-73.6563,20.7802],[-73.5232,20.8337],[-73.5032,20.8532],[-73.5105,20.9031],[-73.5284,20.9197],[-73.6064,20.9231],[-73.6664,21.0028],[-73.6666,21.0361],[-73.5897,21.1156],[-73.4566,21.1991],[-73.3402,21.1835],[-73.2903,21.1511],[-73.2238,21.1512],[-73.1905,21.1678],[-73.0907,21.2668],[-73.0408,21.267],[-73.0088,21.2357],[-73.0275,21.1525],[-72.9909,21.1112],[-72.941,21.1023],[-72.575,21.1416],[-72.2257,21.0926],[-71.1463,20.7035],[-70.9959,20.637],[-70.8392,20.5372],[-70.7662,20.4707],[-70.7024,20.3875],[-70.6698,20.321],[-70.6723,20.2378],[-70.7438,20.1547],[-70.9448,20.0768],[-71.0625,20.005],[-71.1155,19.9385],[-71.101,19.9052],[-71.0816,19.8886],[-71.0446,19.8838],[-70.8783,19.8812],[-70.8314,19.822],[-70.841,19.7389],[-70.7619,19.6792],[-70.6454,19.6565],[-70.624,19.689],[-70.524,19.7389],[-70.4125,19.7575],[-70.3127,19.7446],[-70.2628,19.728],[-70.1913,19.6724],[-70.0632,19.6113],[-69.9468,19.5337],[-69.8712,19.4562],[-69.834,19.373],[-69.7022,19.2233],[-69.6829,19.1901],[-69.6874,19.1734],[-69.7477,19.0903],[-69.7626,19.057],[-69.7649,18.9905],[-69.7971,18.9505],[-69.8969,18.9731],[-69.9135,18.9915],[-69.9301,19.0572],[-70.0299,19.1037],[-70.0799,19.1135],[-70.1464,19.0975],[-70.2778,19.0238],[-70.3073,18.9905],[-70.3099,18.9572],[-70.2897,18.9073],[-70.2462,18.8674],[-70.1928,18.8741],[-70.1963,18.8359],[-70.2462,18.8457],[-70.2525,18.8075],[-70.2129,18.7941],[-70.1131,18.8005],[-70.0873,18.8408],[-70.0466,18.8713],[-69.8969,18.8855],[-69.6946,18.7909],[-69.6206,18.6911],[-69.5524,18.5248],[-69.5711,18.4749],[-69.6141,18.4398],[-69.7139,18.4394],[-69.7305,18.455],[-69.7722,18.4583],[-69.8802,18.5019],[-69.9171,18.4916],[-69.9468,18.4619],[-69.9468,18.373],[-69.8668,18.1589],[-69.8363,17.9261],[-69.8743,17.66],[-69.9271,17.4937],[-69.9982,17.3274],[-70.0726,17.1943],[-70.2269,16.9615],[-70.4226,16.7287],[-70.6621,16.5034],[-70.8955,16.3295],[-71.1809,16.1632],[-71.4106,16.0616],[-71.6269,15.9869],[-71.8098,15.9379],[-72.076,15.8907],[-72.8578,15.8132]],[[-75.8354,20.1858],[-75.8686,20.1864],[-75.9019,20.2093],[-75.9185,20.2014],[-76.0017,20.234],[-76.0225,20.2545],[-76.0433,20.321],[-76.0849,20.3732],[-76.1181,20.3756],[-76.2013,20.3505],[-76.2679,20.3518],[-76.3677,20.4445],[-76.4342,20.4592],[-76.4726,20.4374],[-76.4877,20.4041],[-76.534,20.3674],[-76.6641,20.3043],[-76.7178,20.3043],[-76.7995,20.3875],[-76.7954,20.4707],[-76.8104,20.5039],[-76.8057,20.5372],[-76.8332,20.5871],[-76.8269,20.6037],[-76.7669,20.6382],[-76.6671,20.6409],[-76.4924,20.7368],[-76.3677,20.7648],[-76.2013,20.7386],[-76.0849,20.6267],[-76.0516,20.6091],[-76.0194,20.637],[-76.0076,20.6702],[-76.0204,20.7035],[-76.0047,20.7368],[-75.9354,20.8199],[-75.7706,20.9197],[-75.7189,20.9332],[-75.6756,20.9031],[-75.6928,20.8532],[-75.7534,20.7866],[-75.725,20.7035],[-75.7351,20.6702],[-75.7522,20.6774],[-75.9073,20.5205],[-75.9036,20.3542],[-75.8462,20.3043],[-75.8334,20.2711],[-75.8354,20.1858]],[[-75.3031,20.6342],[-75.3031,20.6472],[-75.2915,20.637],[-75.3031,20.6342]],[[-75.17,20.6202],[-75.2538,20.637],[-75.1866,20.6488],[-75.1694,20.637],[-75.17,20.6202]],[[-71.2425,19.7722],[-71.2347,19.7888],[-71.2609,19.7973],[-71.2785,19.7722],[-71.2609,19.761],[-71.2425,19.7722]],[[-70.4287,19.0238],[-70.4287,19.0238]],[[-70.4405,18.4916],[-70.4292,18.5029],[-70.4125,18.4933],[-70.3929,18.5581],[-70.4125,18.5905],[-70.4756,18.608],[-70.5046,18.6579],[-70.4983,18.7577],[-70.4681,18.8408],[-70.4764,18.9073],[-70.5123,18.9297],[-70.529,18.975],[-70.5332,18.9406],[-70.5808,18.8741],[-70.5867,18.8242],[-70.5599,18.741],[-70.5643,18.608],[-70.5379,18.5415],[-70.4624,18.5139],[-70.4405,18.4916]],[[-70.3102,18.741],[-70.3383,18.741],[-70.3127,18.7258],[-70.3102,18.741]],[[-70.2967,18.6911],[-70.3127,18.7237],[-70.3294,18.7197],[-70.3435,18.6911],[-70.3294,18.677],[-70.2967,18.6911]]]}},{"type":"Feature","properties":{"mmi":4.5,"color":"#7cffc7"},"geometry":{"type":"MultiLineString","coordinates":[[[-73.2404,20.9836],[-73.3074,21.0195],[-73.3113,21.0527],[-73.2404,21.1049],[-73.1572,21.0933],[-73.1477,21.0527],[-73.1572,21.0375],[-73.1886,21.0028],[-73.2404,20.9836]],[[-72.8079,17.0273],[-72.9909,17.0181],[-73.3236,17.0669],[-73.5232,17.1309],[-73.7727,17.2531],[-73.9723,17.3847],[-74.2052,17.5806],[-74.4214,17.8108],[-74.6044,18.0468],[-74.671,18.1803],[-74.6928,18.2587],[-74.704,18.3419],[-74.673,18.5082],[-74.6321,18.608],[-74.5212,18.7991],[-74.2392,19.2233],[-74.076,19.4229],[-73.5369,20.005],[-73.3735,20.1058],[-73.2404,20.1316],[-73.1572,20.1186],[-73.1073,20.0938],[-72.8412,19.9055],[-72.758,19.8727],[-72.6748,19.8979],[-72.575,19.9684],[-72.4586,19.9839],[-72.2922,19.9544],[-72.1924,19.8812],[-72.1543,19.8054],[-72.0926,19.734],[-72.0593,19.7155],[-71.8265,19.733],[-71.7464,19.7888],[-71.6768,19.8701],[-71.6102,19.8917],[-71.5769,19.8878],[-71.5225,19.8553],[-71.4208,19.7223],[-71.386,19.6391],[-71.298,19.5726],[-71.2932,19.5559],[-71.2775,19.5521],[-71.1611,19.6295],[-71.0946,19.6486],[-70.9947,19.6348],[-70.9282,19.6101],[-70.8741,19.5726],[-70.8148,19.4894],[-70.8284,19.4758],[-70.8617,19.4946],[-70.8949,19.4666],[-71.1278,19.4429],[-71.1777,19.4248],[-71.3036,19.3397],[-71.2984,19.3231],[-71.3194,19.3065],[-71.326,19.2732],[-71.4272,19.2668],[-71.4384,19.2566],[-71.4686,19.1402],[-71.4509,19.057],[-71.4106,18.9964],[-71.211,18.8841],[-71.1112,18.7987],[-71.0397,18.7577],[-70.9615,18.6692],[-70.9282,18.6054],[-70.8598,18.5747],[-70.7574,18.4916],[-70.7392,18.4583],[-70.7358,18.425],[-70.7588,18.3918],[-70.8284,18.3469],[-70.9057,18.3585],[-70.9947,18.4188],[-71.0446,18.4313],[-71.1018,18.4084],[-71.1088,18.3419],[-70.9932,18.1756],[-70.9918,18.0924],[-71.0231,18.0093],[-71.0946,17.9498],[-71.1278,17.9524],[-71.1819,18.0093],[-71.1573,18.0924],[-71.182,18.1423],[-71.2443,18.1724],[-71.2775,18.1728],[-71.3108,18.1465],[-71.3274,18.1629],[-71.356,18.1589],[-71.3642,18.109],[-71.3108,18.0721],[-71.2801,17.9427],[-71.2861,17.8596],[-71.3474,17.7265],[-71.5788,17.4105],[-71.7433,17.2715],[-71.8597,17.2043],[-72.0593,17.1277],[-72.2091,17.0934],[-72.8079,17.0273]],[[-70.3294,19.1541],[-70.4292,19.1556],[-70.5458,19.2067],[-70.6122,19.2579],[-70.7452,19.4197],[-70.8087,19.4728],[-70.7951,19.4865],[-70.6953,19.488],[-70.5623,19.4681],[-70.4458,19.4861],[-70.3316,19.4728],[-70.2455,19.3896],[-70.2187,19.2732],[-70.226,19.24],[-70.2628,19.1932],[-70.3294,19.1541]],[[-70.1464,18.308],[-70.1655,18.3086],[-70.1645,18.3252],[-70.1963,18.3559],[-70.1967,18.3918],[-70.1464,18.4516],[-70.1131,18.4612],[-70.0799,18.4323],[-70.075,18.3751],[-70.1426,18.3252],[-70.1464,18.308]],[[-70.4292,18.2512],[-70.4568,18.2754],[-70.4292,18.3048],[-70.4125,18.303],[-70.4082,18.2754],[-70.4292,18.2512]]]}},{"type":"Feature","properties":{"mmi":5.0,"color":"#7cff90"},"geometry":{"type":"MultiLineString","coordinates":[[[-72.8079,17.4247],[-73.0408,17.4245],[-73.0574,17.4403],[-73.1572,17.4411],[-73.1739,17.4569],[-73.2404,17.4578],[-73.257,17.4737],[-73.2903,17.4744],[-73.3402,17.5067],[-73.3735,17.5074],[-73.4733,17.5572],[-73.5065,17.5893],[-73.5564,17.6066],[-73.6064,17.6552],[-73.623,17.6561],[-73.7796,17.8097],[-73.8559,17.9174],[-74.0268,18.0592],[-74.0453,18.109],[-74.0427,18.1756],[-74.0124,18.2255],[-73.939,18.2962],[-73.9338,18.4084],[-73.9723,18.4625],[-74.0174,18.4916],[-74.0344,18.5248],[-74.0337,18.5913],[-73.9838,18.6579],[-73.9823,18.7078],[-73.931,18.8242],[-73.9294,18.8574],[-73.8614,18.9905],[-73.7785,19.0903],[-73.7778,19.1069],[-73.623,19.2617],[-73.6064,19.2625],[-73.5065,19.3454],[-73.3402,19.4306],[-73.3069,19.4324],[-73.2404,19.4657],[-73.1039,19.4894],[-73.0492,19.5393],[-73.0414,19.5726],[-73.124,19.6918],[-73.2238,19.7885],[-73.257,19.7904],[-73.2903,19.8108],[-73.2903,19.842],[-73.1905,19.9223],[-73.124,19.9312],[-72.9909,19.9175],[-72.9339,19.8886],[-72.8871,19.8387],[-72.8718,19.8054],[-72.8779,19.7389],[-72.8412,19.709],[-72.7247,19.6997],[-72.575,19.6028],[-72.4918,19.5933],[-72.3772,19.5559],[-72.3226,19.6058],[-72.3535,19.6225],[-72.3302,19.6724],[-72.3089,19.6762],[-72.259,19.7273],[-72.1506,19.7223],[-72.1335,19.7056],[-72.1238,19.6557],[-72.2091,19.57],[-72.2756,19.5608],[-72.2954,19.5393],[-72.2756,19.5202],[-72.2423,19.5142],[-72.1062,19.373],[-72.0427,19.3448],[-71.9263,19.3723],[-71.8764,19.3638],[-71.8098,19.3811],[-71.7735,19.4063],[-71.7932,19.4422],[-71.887,19.5061],[-71.8988,19.5393],[-71.932,19.5726],[-71.9561,19.6391],[-71.951,19.6557],[-71.893,19.6958],[-71.8265,19.6984],[-71.7267,19.7839],[-71.6768,19.8445],[-71.5948,19.8387],[-71.5182,19.7722],[-71.4888,19.7223],[-71.5208,19.6391],[-71.5938,19.5892],[-71.617,19.5559],[-71.6207,19.4894],[-71.6435,19.4596],[-71.6842,19.4395],[-71.643,19.3896],[-71.6518,19.373],[-71.6367,19.3564],[-71.6481,19.3231],[-71.6147,19.2732],[-71.6148,19.2566],[-71.6385,19.24],[-71.6069,19.2067],[-71.6201,19.1568],[-71.5993,19.1069],[-71.4771,19.0142],[-71.394,18.9228],[-71.3441,18.8812],[-71.214,18.8242],[-71.1807,18.7743],[-71.211,18.7387],[-71.3108,18.7921],[-71.3607,18.7869],[-71.4272,18.8019],[-71.4584,18.7577],[-71.5315,18.7244],[-71.5214,18.7078],[-71.5343,18.6911],[-71.5275,18.6246],[-71.541,18.608],[-71.4691,18.5415],[-71.2896,18.5082],[-71.211,18.4657],[-71.1445,18.3742],[-71.1257,18.3252],[-71.1278,18.2766],[-71.1445,18.2563],[-71.2609,18.2606],[-71.4106,18.2412],[-71.4938,18.2564],[-71.5414,18.1922],[-71.5437,18.1349],[-71.5674,18.0924],[-71.5104,18.0012],[-71.4439,17.9578],[-71.3529,17.8596],[-71.344,17.8097],[-71.3607,17.7585],[-71.4106,17.7103],[-71.4439,17.7087],[-71.4815,17.7265],[-71.5593,17.7764],[-71.6252,17.8429],[-71.6199,17.8928],[-71.6768,17.9323],[-71.7267,17.9184],[-71.7591,17.8928],[-71.8282,17.7099],[-71.902,17.6267],[-71.9762,17.5768],[-72.0094,17.5748],[-72.0593,17.5421],[-72.1425,17.5241],[-72.1592,17.5082],[-72.2091,17.5071],[-72.2257,17.4913],[-72.3089,17.4904],[-72.3255,17.4747],[-72.4586,17.4736],[-72.4752,17.458],[-72.6249,17.4569],[-72.6416,17.4413],[-72.7913,17.4403],[-72.8079,17.4247]],[[-74.3715,18.2823],[-74.4302,18.3419],[-74.3882,18.3813],[-74.3383,18.3651],[-74.3231,18.3419],[-74.3715,18.2823]]]}},{"type":"Feature","properties":{"mmi":5.5,"color":"#bbff4a"},"geometry":{"type":"MultiLineString","coordinates":[[[-72.7913,17.709],[-72.9576,17.7009],[-73.1406,17.7284],[-73.2404,17.7628],[-73.4234,17.8584],[-73.7062,18.0682],[-73.7561,18.0674],[-73.8392,18.0251],[-73.8725,18.0329],[-73.9403,18.0924],[-73.9697,18.1756],[-73.9613,18.2421],[-73.9147,18.292],[-73.8913,18.3419],[-73.8008,18.425],[-73.806,18.4475],[-73.8654,18.4916],[-73.859,18.5415],[-73.8087,18.608],[-73.7228,18.7874],[-73.6396,18.8984],[-73.4733,19.0626],[-73.1154,19.3231],[-72.9742,19.4772],[-72.9596,19.5227],[-72.9678,19.5559],[-73.0408,19.6439],[-73.0388,19.689],[-73.0241,19.7005],[-72.9742,19.6761],[-72.9576,19.6913],[-72.8883,19.6225],[-72.8647,19.5726],[-72.8079,19.5347],[-72.7746,19.5337],[-72.7414,19.5905],[-72.6915,19.6172],[-72.6083,19.5919],[-72.5251,19.477],[-72.4419,19.4887],[-72.4402,19.5061],[-72.4253,19.5104],[-72.3965,19.5061],[-72.392,19.4885],[-72.3891,19.5061],[-72.3605,19.5061],[-72.3255,19.4866],[-72.2922,19.4466],[-72.2257,19.4269],[-72.1534,19.3397],[-72.0551,19.2566],[-71.9028,19.1901],[-71.7599,19.1799],[-71.6269,19.0981],[-71.5154,18.9739],[-71.5187,18.9073],[-71.5603,18.8587],[-71.6399,18.8075],[-71.6405,18.7743],[-71.6768,18.785],[-71.6875,18.7743],[-71.6853,18.7244],[-71.6413,18.6911],[-71.6203,18.6412],[-71.6219,18.608],[-71.5437,18.5396],[-71.4605,18.5021],[-71.3274,18.4834],[-71.2775,18.4488],[-71.2527,18.4084],[-71.2654,18.3585],[-71.3441,18.2946],[-71.5603,18.3572],[-71.6768,18.351],[-71.786,18.3252],[-71.792,18.3086],[-71.7683,18.2754],[-71.759,18.2088],[-71.7674,18.1922],[-71.7227,18.109],[-71.7264,18.0758],[-71.8764,18.0189],[-72.0261,17.8881],[-72.1592,17.8051],[-72.3255,17.7529],[-72.7913,17.709]],[[-72.4576,19.4562],[-72.4761,19.4562],[-72.4576,19.4562]]]}},{"type":"Feature","properties":{"mmi":6.0,"color":"#ffff00"},"geometry":{"type":"MultiLineString","coordinates":[[[-72.4586,17.9578],[-72.9243,17.9479],[-73.0408,17.9645],[-73.1406,18.0019],[-73.2588,18.0924],[-73.3096,18.1756],[-73.346,18.2088],[-73.3699,18.2754],[-73.3901,18.2958],[-73.4566,18.3537],[-73.5105,18.3751],[-73.5564,18.4202],[-73.5897,18.4334],[-73.6308,18.5581],[-73.5398,18.68],[-73.2927,18.9073],[-73.2238,18.9505],[-73.1284,18.9739],[-73.0574,19.0101],[-72.7913,19.229],[-72.7694,19.2899],[-72.7333,19.3397],[-72.7392,19.4063],[-72.6915,19.5087],[-72.6416,19.4951],[-72.6042,19.4562],[-72.6097,19.373],[-72.5917,19.3216],[-72.2257,19.0223],[-72.076,18.9872],[-72.06,19.0404],[-72.0837,19.0903],[-72.1425,19.1032],[-72.1653,19.1235],[-72.1924,19.1924],[-72.2423,19.1935],[-72.2981,19.2233],[-72.3237,19.2732],[-72.3089,19.3004],[-72.259,19.3014],[-72.2091,19.2363],[-72.1093,19.2013],[-72.0261,19.1903],[-71.8431,19.1047],[-71.7966,19.057],[-71.7594,18.924],[-71.8265,18.8403],[-71.8764,18.8181],[-71.9263,18.8154],[-71.9477,18.7909],[-71.9429,18.765],[-71.893,18.6914],[-71.7932,18.5901],[-71.6934,18.5784],[-71.6601,18.5616],[-71.6476,18.5082],[-71.6463,18.4749],[-71.71,18.4271],[-71.7599,18.4145],[-71.893,18.4245],[-71.9812,18.3751],[-72.012,18.3419],[-71.9956,18.2754],[-72.0086,18.1756],[-72.1425,18.0589],[-72.2756,17.9912],[-72.4586,17.9578]],[[-73.8226,18.1533],[-73.8392,18.1466],[-73.874,18.1756],[-73.8652,18.2255],[-73.8301,18.2754],[-73.7228,18.3104],[-73.6805,18.292],[-73.6841,18.2754],[-73.8226,18.1533]]]}},{"type":"Feature","properties":{"mmi":6.5,"color":"#ffe200"},"geometry":{"type":"MultiLineString","coordinates":[[[-72.4419,18.109],[-72.6083,18.1092],[-72.8245,18.1404],[-72.9243,18.1284],[-73.0408,18.1483],[-73.2088,18.2421],[-73.263,18.292],[-73.2505,18.3252],[-73.2667,18.3419],[-73.257,18.3651],[-73.3546,18.425],[-73.4234,18.4475],[-73.4496,18.4916],[-73.4352,18.5248],[-73.3332,18.6246],[-73.1572,18.7393],[-73.0907,18.8051],[-73.0241,18.8386],[-72.9909,18.8321],[-72.8657,18.9073],[-72.747,19.0238],[-72.7355,19.1069],[-72.7541,19.1402],[-72.759,19.1901],[-72.7105,19.24],[-72.7177,19.2732],[-72.7081,19.2755],[-72.6915,19.2754],[-72.6582,19.2452],[-72.5251,19.2184],[-72.3089,18.99],[-72.1077,18.9073],[-72.033,18.8242],[-72.0492,18.6911],[-72.0223,18.6579],[-71.9096,18.6043],[-71.8674,18.5581],[-71.8658,18.5082],[-71.893,18.4815],[-72.0427,18.4695],[-72.1181,18.425],[-72.1422,18.3585],[-72.1976,18.3086],[-72.2343,18.2255],[-72.2922,18.154],[-72.3421,18.1294],[-72.4419,18.109]],[[-72.5109,18.9073],[-72.4785,18.9406],[-72.4819,18.9572],[-72.5584,19.0456],[-72.6249,19.0488],[-72.6836,18.9905],[-72.683,18.9739],[-72.6159,18.9073],[-72.5584,18.8943],[-72.5109,18.9073]]]}},{"type":"Feature","properties":{"mmi":7.0,"color":"#ffc600"},"geometry":{"type":"MultiLineString","coordinates":[[[-72.4752,18.2241],[-72.575,18.2119],[-72.7414,18.272],[-73.0075,18.2387],[-73.074,18.2581],[-73.1151,18.292],[-73.1424,18.3419],[-73.1307,18.5581],[-73.0574,18.635],[-72.8412,18.7908],[-72.7746,18.8055],[-72.6582,18.7909],[-72.4918,18.8387],[-72.4253,18.8153],[-72.259,18.711],[-72.1924,18.6755],[-72.1425,18.6665],[-72.1093,18.6418],[-72.0741,18.608],[-72.0593,18.5725],[-72.1259,18.5107],[-72.1778,18.4916],[-72.3752,18.292],[-72.4752,18.2241]]]}},{"type":"Feature","properties":{"mmi":7.5,"color":"#ffaa00"},"geometry":{"type":"MultiLineString","coordinates":[[[-72.4918,18.3067],[-72.5417,18.3256],[-72.5917,18.3202],[-72.758,18.3717],[-72.8245,18.3695],[-72.941,18.3319],[-73.0234,18.3419],[-73.0608,18.3918],[-73.0556,18.4749],[-72.9909,18.5596],[-72.9077,18.5925],[-72.7247,18.6132],[-72.4918,18.6167],[-72.4253,18.6053],[-72.259,18.6623],[-72.1592,18.6392],[-72.1403,18.608],[-72.1403,18.5581],[-72.258,18.4916],[-72.3882,18.3585],[-72.4918,18.3067]]]}},{"type":"Feature","properties":{"mmi":8.0,"color":"#ff9100"},"geometry":{"type":"MultiLineString","coordinates":[[[-72.7081,18.3902],[-72.7746,18.4056],[-72.9495,18.4084],[-72.9774,18.425],[-72.9806,18.4749],[-72.941,18.5096],[-72.8911,18.5261],[-72.7746,18.527],[-72.575,18.5512],[-72.4685,18.5415],[-72.404,18.5082],[-72.407,18.4749],[-72.4419,18.4282],[-72.4752,18.4089],[-72.5251,18.3957],[-72.7081,18.3902]]]}}]}