{"type": "FeatureCollection", "meta": {"note": "Hong Kong 500km araştırma alanı — GEO Publication No. 1/2012 Regional Earthquake Catalogue ile aynı yarıçap/referans noktayı kullanır (bkz. data/hongkong_historical.json meta.reference_point). Gerçek çember, great-circle (haversine destination) formülüyle 72 köşeli poligon olarak hesaplanmıştır — kaynaktan dijitalleştirilmiş bir sismik zonasyon sınırı DEĞİLDİR, sadece katalog kapsamının analiz geometrisidir.", "center": {"lat": 22.3, "lon": 114.167}, "radius_km": 500.0, "vertices": 72}, "features": [{"type": "Feature", "properties": {"region_label": "HK", "region_name": "Hong Kong — 500km Araştırma Alanı", "description": "GEO Publication No. 1/2012 (Geotechnical Engineering Office) Regional Earthquake Catalogue kapsamıyla AYNI yarıçap ve referans nokta (HKO, Tsim Sha Tsui) — analiz kapsamı, sismik zonasyon sınırı değildir. Resmi sismik kaynak-bölge modeli (Pappin ve ark. 2015, 20 kaynak-bölgesi) burada dijitalleştirilmemiştir, bkz. HK zoom preset tooltip notu.", "source_full": "Analiz geometrisi: GEO Publication No. 1/2012 referans noktası (HKO, Tsim Sha Tsui, 22.30N 114.167E) + 500km yarıçap — great-circle hesaplama, kaynakta digitize edilmiş bir sınır değildir."}, "geometry": {"type": "Polygon", "coordinates": [[[114.167, 26.7966], [114.6055, 26.7789], [115.0404, 26.7259], [115.4678, 26.6381], [115.8842, 26.5162], [116.2862, 26.3612], [116.6704, 26.1745], [117.0338, 25.9576], [117.3734, 25.7124], [117.6866, 25.4409], [117.9711, 25.1452], [118.2247, 24.8279], [118.4458, 24.4914], [118.6327, 24.1385], [118.7844, 23.7719], [118.9, 23.3946], [118.9788, 23.0095], [119.0206, 22.6195], [119.0254, 22.2277], [118.9935, 21.8369], [118.9254, 21.4502], [118.8219, 21.0704], [118.6841, 20.7003], [118.5131, 20.3426], [118.3105, 20.0], [118.0778, 19.6749], [117.817, 19.3697], [117.53, 19.0866], [117.2191, 18.8276], [116.8864, 18.5946], [116.5345, 18.3892], [116.1659, 18.2128], [115.7832, 18.0668], [115.3892, 17.9522], [114.9866, 17.8697], [114.5782, 17.82], [114.167, 17.8034], [113.7558, 17.82], [113.3474, 17.8697], [112.9448, 17.9522], [112.5508, 18.0668], [112.1681, 18.2128], [111.7995, 18.3892], [111.4476, 18.5946], [111.1149, 18.8276], [110.804, 19.0866], [110.517, 19.3697], [110.2562, 19.6749], [110.0235, 20.0], [109.8209, 20.3426], [109.6499, 20.7003], [109.5121, 21.0704], [109.4086, 21.4502], [109.3405, 21.8369], [109.3086, 22.2277], [109.3134, 22.6195], [109.3552, 23.0095], [109.434, 23.3946], [109.5496, 23.7719], [109.7013, 24.1385], [109.8882, 24.4914], [110.1093, 24.8279], [110.3629, 25.1452], [110.6474, 25.4409], [110.9606, 25.7124], [111.3002, 25.9576], [111.6636, 26.1745], [112.0478, 26.3612], [112.4498, 26.5162], [112.8662, 26.6381], [113.2936, 26.7259], [113.7285, 26.7789], [114.167, 26.7966]]]}}]}