{"type":"FeatureCollection","features":[{"type":"Feature","properties":{"mmi":1.5,"color":"#dfe6ff"},"geometry":{"type":"MultiLineString","coordinates":[[[135.3667,29.3355],[135.3002,29.3022],[135.2252,29.2332],[135.2086,29.2]]]}},{"type":"Feature","properties":{"mmi":2.0,"color":"#bfccff"},"geometry":{"type":"MultiLineString","coordinates":[[[127.4189,36.3833],[127.4154,36.3638],[127.3987,36.3617],[127.3655,36.3671],[127.3566,36.3833]],[[126.75,35.9953],[126.8538,36.0009],[126.8831,36.0279],[126.8919,36.084],[126.9391,36.1505],[126.9418,36.2004],[127.0328,36.2514],[127.0993,36.2683],[127.1599,36.2337],[127.1852,36.1838],[127.177,36.1339],[127.1168,36.0674],[127.116,36.0368],[127.1492,36.0211],[127.1991,36.028],[127.6439,36.3334],[127.6866,36.3833]],[[134.6666,36.3833],[134.6738,36.3501],[134.6998,36.3168],[135.0174,36.0659],[135.3334,35.7814],[135.3667,35.7794]],[[135.3667,30.2386],[135.3168,30.2093],[135.0505,29.9316],[134.7845,29.6885],[134.5183,29.477],[134.1883,29.2498],[134.1505,29.2]],[[127.4732,29.2],[127.4372,29.2498],[127.116,29.4914],[126.7999,29.7719],[126.75,29.7741]]]}},{"type":"Feature","properties":{"mmi":2.5,"color":"#afd9ff"},"geometry":{"type":"MultiLineString","coordinates":[[[126.75,34.6716],[126.7999,34.6786],[126.8694,34.7371],[127.0325,34.9699],[127.1326,35.0833],[127.2468,35.1861],[127.2986,35.2859],[127.2988,35.3191],[127.335,35.369],[127.3821,35.4006],[127.4986,35.4338],[127.8631,35.7182],[128.2637,35.9774],[128.3636,36.0735],[128.4066,36.1505],[128.4301,36.1651],[128.5133,36.1607],[128.5964,36.2001],[128.6297,36.2381],[128.9291,36.3469],[128.9374,36.3833]],[[133.5117,36.3833],[133.516,36.3501],[133.5326,36.3334],[134.1357,35.9924],[134.5072,35.7515],[134.6847,35.6172],[134.8011,35.561],[134.8677,35.5606],[134.8843,35.5167],[134.9508,35.4428],[135.1545,35.3025],[135.1648,35.2194],[135.1569,35.1695],[135.2434,35.0032],[135.2435,34.9533],[135.3002,34.894],[135.3667,34.8658]],[[126.75,35.7358],[126.7666,35.7199],[126.7999,35.7352],[126.8149,35.7182],[126.7999,35.7012],[126.7833,35.7174],[126.75,35.7167]],[[126.75,35.1861],[126.7666,35.1761],[126.7999,35.1861],[126.8498,35.2246],[126.8831,35.2316],[126.8997,35.2306],[126.9231,35.2027],[126.8631,35.0863],[126.8375,34.9866],[126.8165,34.9652],[126.75,34.9471]],[[135.3667,31.376],[135.3334,31.3593],[135.1176,30.9958],[134.8713,30.6632],[134.6331,30.3972],[134.3531,30.1311],[134.0858,29.916],[133.8363,29.7415],[133.2208,29.3844],[132.9104,29.2332],[132.8855,29.2]],[[128.7056,29.2],[128.6806,29.2332],[128.4135,29.361],[128.0142,29.5914],[127.5889,29.8983],[127.3775,30.0813],[127.174,30.2808],[126.9792,30.497],[126.8165,30.7028],[126.7833,30.7292],[126.75,30.7361]]]}},{"type":"Feature","properties":{"mmi":3.0,"color":"#a0e5ff"},"geometry":{"type":"MultiLineString","coordinates":[[[131.0916,29.5483],[130.8088,29.5335],[130.6425,29.5385],[130.0769,29.5994],[129.6111,29.7021],[129.2119,29.839],[128.8792,29.9868],[128.4301,30.2532],[128.0354,30.5635],[127.8473,30.7464],[127.6815,30.9309],[127.436,31.2619],[127.2288,31.6277],[127.1362,31.8438],[127.0525,32.0933],[126.9669,32.509],[126.9368,32.8748],[126.9981,33.4401],[127.1226,33.8392],[127.2568,34.1385],[127.391,34.3713],[127.4625,34.4378],[127.5318,34.5712],[127.6429,34.6873],[127.6815,34.7049],[127.7481,34.7724],[127.8312,34.7776],[127.8645,34.7934],[127.9311,34.7717],[127.9619,34.8037],[127.9686,34.8535],[127.8963,34.9201],[127.9124,34.9699],[127.981,35.0553],[128.0475,35.0582],[128.0974,34.9536],[128.1553,34.9533],[128.2138,34.9869],[128.2691,35.0531],[128.3469,35.1106],[128.4135,35.1303],[128.5798,35.2474],[128.6098,35.3025],[128.7402,35.4189],[128.8127,35.4383],[128.8792,35.4362],[128.9957,35.4683],[129.0813,35.5519],[129.1454,35.6511],[129.1953,35.6708],[129.2618,35.7318],[129.3117,35.7207],[129.3616,35.7716],[129.4282,35.8106],[129.4947,35.8962],[129.5612,35.9421],[129.8773,36.031],[130.1601,36.0906],[130.6092,36.1506],[130.9918,36.1724],[131.3411,36.1545],[131.7736,36.1026],[133.2707,35.8075],[133.5036,35.7223],[133.9528,35.4853],[134.0692,35.4641],[134.169,35.4908],[134.2355,35.4876],[134.2751,35.4023],[134.2688,35.3278],[134.22,35.2692],[134.237,35.236],[134.3686,35.2259],[134.668,35.1343],[134.7206,35.103],[134.8016,35.0032],[134.8937,34.9367],[134.9051,34.9201],[134.9148,34.8037],[134.9508,34.6982],[134.9342,34.6769],[134.9077,34.6706],[134.7679,34.726],[134.7171,34.6706],[134.7279,34.6207],[134.8227,34.521],[134.9342,34.4666],[134.9841,34.4198],[135.0673,34.4024],[135.1338,34.3657],[135.1929,34.2882],[135.2054,34.205],[135.2004,34.1682],[135.1517,34.1552],[135.1338,34.1378],[135.0839,34.1367],[135.034,34.1081],[134.9844,34.0554],[134.9366,33.939],[134.921,33.8392],[134.8781,32.9912],[134.8255,32.5422],[134.7301,32.1431],[134.6548,31.927],[134.5445,31.6776],[134.3504,31.345],[134.1529,31.0789],[134.0222,30.9293],[133.67,30.5947],[133.2833,30.314],[132.6885,29.9746],[132.2394,29.7873],[131.9566,29.6971],[131.7237,29.6401],[131.4742,29.5934],[131.0916,29.5483]]]}},{"type":"Feature","properties":{"mmi":3.5,"color":"#90f2ff"},"geometry":{"type":"MultiLineString","coordinates":[[[130.9918,30.3301],[130.7423,30.325],[130.6425,30.3562],[130.5759,30.4023],[130.526,30.4185],[130.4761,30.4206],[130.3264,30.3699],[130.1601,30.4028],[130.1102,30.3975],[129.8607,30.4545],[129.5612,30.5542],[129.3129,30.6632],[129.0003,30.8462],[128.7129,31.0673],[128.4398,31.345],[128.2528,31.5944],[128.1084,31.8438],[127.981,32.1748],[127.9164,32.4591],[127.8711,32.8914],[127.8935,33.1575],[127.9503,33.4401],[128.0772,33.7727],[128.212,34.0055],[128.3486,34.1884],[128.523,34.3713],[128.6796,34.4991],[128.9291,34.6531],[129.2881,34.8203],[129.6111,35.0568],[129.7609,35.1431],[130.0869,35.2692],[130.2765,35.3179],[130.5593,35.3664],[130.8587,35.3953],[131.075,35.3979],[131.6073,35.3386],[131.8734,35.28],[132.1895,35.176],[132.2727,35.1677],[132.4889,35.2545],[132.5887,35.2484],[132.6553,35.2614],[132.7037,35.3358],[132.7064,35.369],[132.7379,35.4023],[132.8715,35.4631],[132.9381,35.4579],[133.0212,35.4832],[133.1044,35.4816],[133.1543,35.4633],[133.2375,35.4905],[133.3206,35.4747],[133.3373,35.4545],[133.487,35.4481],[133.5175,35.4189],[133.5317,35.3524],[133.487,35.2643],[133.3539,35.1272],[133.2042,35.1245],[133.1616,35.0863],[133.1876,35.0573],[133.2707,35.0222],[133.3539,35.0192],[133.4205,34.9963],[133.6034,34.8825],[133.8363,34.8483],[133.9177,34.7371],[134.0193,34.7038],[134.0526,34.6775],[134.0494,34.6207],[134.0026,34.5709],[133.9694,34.5055],[133.8862,34.4723],[133.8498,34.4378],[133.8801,34.4046],[133.8654,34.3547],[133.8977,34.3214],[133.9361,34.3189],[133.9694,34.3188],[134.0359,34.3496],[134.1025,34.3451],[134.179,34.3048],[134.1894,34.2716],[134.169,34.2295],[134.1025,34.1849],[133.853,34.1396],[133.8287,34.1219],[133.8432,34.1053],[133.8355,34.0388],[133.9681,33.939],[134.0692,33.9131],[134.1172,33.8725],[134.1626,33.8226],[134.1856,33.7514],[134.3045,33.5898],[134.1919,33.2739],[134.0974,33.1242],[134.0416,33.0078],[133.88,32.3926],[133.8115,32.193],[133.7251,31.9935],[133.5702,31.7255],[133.3248,31.4115],[133.0465,31.1455],[132.747,30.9293],[132.256,30.6496],[131.9233,30.512],[131.6572,30.4298],[131.4409,30.3841],[130.9918,30.3301]],[[133.0777,35.369],[133.1543,35.3787],[133.1656,35.4023],[133.0541,35.3856],[133.0711,35.3623],[133.0777,35.369]],[[134.5516,34.0335],[134.5183,34.0224],[134.3853,34.0502],[134.3824,34.0886],[134.3939,34.1053],[134.3804,34.1219],[134.4185,34.1465],[134.5516,34.159],[134.5725,34.1385],[134.5846,34.072],[134.5516,34.0335]]]}},{"type":"Feature","properties":{"mmi":4.0,"color":"#80ffff"},"geometry":{"type":"MultiLineString","coordinates":[[[131.3744,34.4074],[131.3411,34.4066],[131.3353,34.4212],[131.3744,34.459],[131.3882,34.4545],[131.3882,34.4212],[131.3744,34.4074]],[[130.9585,31.3569],[130.926,31.3616],[130.8969,31.3949],[130.868,31.4448],[130.8576,31.4947],[130.8088,31.5385],[130.6591,31.5155],[130.6092,31.5272],[130.5593,31.5117],[130.4595,31.5289],[130.4429,31.5449],[130.3763,31.5471],[130.3264,31.542],[130.2765,31.508],[130.2266,31.5279],[129.9771,31.4851],[129.8274,31.5057],[129.711,31.5501],[129.5779,31.625],[129.4781,31.7007],[129.3693,31.8106],[129.2785,31.9315],[129.2144,32.0434],[129.1599,32.193],[129.1407,32.3261],[129.1803,32.6752],[129.1814,32.8748],[129.1136,33.0743],[129.066,33.1741],[129.0553,33.2572],[129.0929,33.4069],[129.1593,33.5399],[129.2285,33.6304],[129.3238,33.7228],[129.9771,34.1831],[130.2599,34.3288],[130.4928,34.3932],[130.6591,34.4132],[130.9253,34.363],[131.0151,34.2716],[131.075,34.2475],[131.2081,34.2489],[131.3245,34.2777],[131.4077,34.277],[131.4908,34.2495],[131.6239,34.1447],[131.6846,34.1219],[131.7736,34.1183],[131.8069,34.0982],[132.0564,34.2171],[132.2061,34.2454],[132.3059,34.2438],[132.3558,34.2292],[132.3845,34.205],[132.4726,34.1718],[132.5056,34.1427],[132.5555,34.1535],[132.6054,34.1458],[132.695,34.0388],[132.805,33.9859],[132.821,33.8725],[132.9579,33.7228],[133.0207,33.49],[132.9588,33.2739],[132.988,33.2253],[133.0212,33.1991],[133.1377,33.1827],[133.1867,33.1408],[133.2242,33.0577],[133.2211,33.0244],[133.1879,32.9579],[133.0046,32.7081],[132.876,32.5589],[132.6596,32.1764],[132.5355,32.0101],[132.3558,31.825],[132.1729,31.6835],[131.9566,31.5594],[131.7237,31.467],[131.574,31.4442],[131.4576,31.4591],[131.3578,31.4995],[131.1415,31.485],[131.0417,31.4049],[130.9585,31.3569]],[[129.754,32.8249],[129.7997,32.8582],[129.8078,32.908],[129.8006,32.9579],[129.7609,32.996],[129.6777,32.9606],[129.6591,32.9247],[129.6943,32.8477],[129.7276,32.824],[129.754,32.8249]]]}},{"type":"Feature","properties":{"mmi":4.5,"color":"#7cffc7"},"geometry":{"type":"MultiLineString","coordinates":[[[131.2247,33.9482],[131.1914,33.9523],[131.1723,33.9722],[131.1748,34.008],[131.2081,34.0181],[131.2411,34.0055],[131.2408,33.9556],[131.2247,33.9482]],[[130.7257,31.7248],[130.5971,31.7274],[130.5542,31.7607],[130.542,31.794],[130.5124,31.8106],[130.4564,31.8771],[130.4893,31.9436],[130.4976,31.9935],[130.4595,32.057],[130.4096,32.0663],[130.3098,32.0409],[130.2765,32.0193],[130.2217,32.06],[130.1982,32.1265],[130.144,32.193],[130.0672,32.2263],[130.0339,32.2595],[129.9619,32.4591],[129.9529,32.5256],[129.9578,32.7085],[129.9213,32.8748],[129.9271,32.9579],[129.9497,33.0244],[129.9438,33.092],[129.9919,33.1907],[130.0436,33.2585],[130.1479,33.3071],[130.2266,33.3725],[130.2932,33.4084],[130.3431,33.4072],[130.4096,33.3851],[130.4429,33.4019],[130.4393,33.4568],[130.393,33.4659],[130.3392,33.5067],[130.3474,33.5732],[130.3368,33.5898],[130.3527,33.6231],[130.4229,33.6896],[130.4262,33.7072],[130.4928,33.7491],[130.5263,33.806],[130.6924,33.9085],[130.7589,33.917],[130.8088,33.9077],[130.8354,33.8891],[130.8406,33.8559],[130.7897,33.7727],[130.8088,33.7303],[130.8421,33.7136],[130.892,33.721],[130.9253,33.7854],[131.0084,33.8068],[131.1083,33.7957],[131.1249,33.7817],[131.3079,33.7652],[131.3245,33.7512],[131.4409,33.7275],[131.5408,33.738],[131.6239,33.7312],[131.6822,33.6729],[131.7034,33.6064],[131.753,33.5399],[132.0065,33.4267],[132.0598,33.3903],[132.092,33.3404],[132.0957,33.2739],[132.0433,33.091],[132.0386,32.8914],[132.0249,32.8748],[132.0382,32.8415],[132.0351,32.7085],[132.0201,32.6919],[132.0179,32.6586],[131.9325,32.4923],[131.8841,32.4425],[131.8824,32.4258],[131.7071,32.2503],[131.6406,32.2127],[131.5408,32.1124],[131.5063,32.0434],[131.467,31.8937],[131.4243,31.8506],[131.3744,31.8272],[131.258,31.8932],[131.2408,31.9104],[131.2018,32.0434],[131.1748,32.07],[131.1249,32.0762],[131.075,32.0413],[131.075,31.9935],[131.098,31.9602],[131.0916,31.8718],[131.0251,31.8374],[130.9585,31.8514],[130.9253,31.8403],[130.7922,31.7367],[130.7257,31.7248]],[[130.9253,33.8388],[130.9253,33.8585],[130.9253,33.8388]],[[130.6109,33.5898],[130.6137,33.6397],[130.5926,33.677],[130.5427,33.6683],[130.5293,33.6397],[130.5398,33.5898],[130.6109,33.5898]]]}},{"type":"Feature","properties":{"mmi":5.0,"color":"#7cff90"},"geometry":{"type":"MultiLineString","coordinates":[[[130.8088,33.5615],[130.7756,33.5573],[130.7369,33.6064],[130.7756,33.6351],[130.8421,33.612],[130.8587,33.6275],[130.892,33.6233],[130.9342,33.7062],[130.9752,33.726],[131.027,33.7062],[131.0378,33.6563],[131.0251,33.6436],[130.9419,33.6395],[130.8421,33.6045],[130.8088,33.5615]],[[130.8255,31.9766],[130.709,31.9718],[130.6092,31.9986],[130.5094,32.1546],[130.417,32.193],[130.3563,32.2429],[130.335,32.2762],[130.3268,32.3759],[130.2959,32.4425],[130.1805,32.5422],[130.1357,32.6087],[130.1344,32.642],[130.1582,32.7085],[130.1261,32.7916],[130.0436,32.8041],[130.0041,32.8415],[130.0104,32.8674],[130.0436,32.897],[130.1434,32.9017],[130.1742,32.9247],[130.1417,33.0577],[130.081,33.1242],[130.1356,33.224],[130.2599,33.3129],[130.4262,33.3486],[130.5427,33.4204],[130.5926,33.4376],[130.6425,33.438],[130.7423,33.4057],[130.8088,33.4166],[130.9086,33.4969],[131.0084,33.5185],[131.075,33.5188],[131.1582,33.5917],[131.2413,33.5921],[131.391,33.5635],[131.4576,33.5343],[131.5656,33.4568],[131.6738,33.4269],[131.8235,33.3029],[131.8333,33.2074],[131.7805,33.1408],[131.764,33.0411],[131.7955,32.908],[131.7887,32.7916],[131.8106,32.6919],[131.8037,32.642],[131.6763,32.4923],[131.6073,32.4408],[131.4742,32.4127],[131.3411,32.4137],[131.2717,32.3759],[131.1914,32.3059],[130.9086,32.1782],[130.8754,32.125],[130.8866,32.0434],[130.8591,31.9935],[130.8255,31.9766]],[[131.4243,31.9859],[131.4077,31.9885],[131.3919,32.0268],[131.3731,32.0933],[131.3793,32.1265],[131.4307,32.1764],[131.4908,32.2103],[131.5258,32.1764],[131.5247,32.1099],[131.4243,31.9859]]]}},{"type":"Feature","properties":{"mmi":5.5,"color":"#bbff4a"},"geometry":{"type":"MultiLineString","coordinates":[[[130.709,32.3208],[130.5427,32.3127],[130.5094,32.3266],[130.4595,32.3707],[130.4059,32.4425],[130.3431,32.5614],[130.2698,32.642],[130.266,32.7251],[130.3161,32.8748],[130.3775,32.9579],[130.393,33.0541],[130.3398,33.1242],[130.2433,33.1807],[130.2351,33.224],[130.2564,33.2572],[130.3264,33.2963],[130.5593,33.3365],[130.6092,33.3264],[130.6581,33.2905],[130.6556,33.2572],[130.6387,33.2406],[130.6758,33.2327],[130.7002,33.2406],[130.6991,33.2739],[130.7124,33.2905],[130.7589,33.3111],[130.8972,33.3404],[131.0583,33.3999],[131.1582,33.4144],[131.258,33.4057],[131.4077,33.4346],[131.5075,33.3861],[131.6738,33.2475],[131.705,33.1907],[131.6905,33.1661],[131.6406,33.1495],[131.5948,33.1076],[131.5994,33.0577],[131.6175,33.0411],[131.6116,32.9912],[131.5253,32.8582],[131.537,32.7584],[131.4908,32.6713],[131.2413,32.4914],[131.1249,32.4244],[130.9918,32.3862],[130.8255,32.3649],[130.709,32.3208]],[[130.8088,32.1754],[130.79,32.193],[130.7898,32.2263],[130.8088,32.2595],[130.8587,32.2542],[130.8765,32.2097],[130.8088,32.1754]]]}},{"type":"Feature","properties":{"mmi":6.0,"color":"#ffff00"},"geometry":{"type":"MultiLineString","coordinates":[[[130.6425,32.4421],[130.5759,32.4436],[130.5094,32.4838],[130.4595,32.5421],[130.4313,32.6087],[130.4289,32.7418],[130.4473,32.8914],[130.4877,33.0244],[130.5593,33.0339],[130.6924,33.0918],[130.892,33.2511],[131.0084,33.3149],[131.1582,33.3545],[131.3079,33.3555],[131.4576,33.2925],[131.4935,33.224],[131.4547,33.091],[131.4815,32.9912],[131.4809,32.9413],[131.3245,32.7016],[131.1415,32.5873],[130.9752,32.5036],[130.8421,32.4696],[130.6425,32.4421]],[[130.4595,33.0866],[130.4096,33.0959],[130.3661,33.1408],[130.3707,33.1741],[130.4096,33.2157],[130.4429,33.2034],[130.4821,33.1575],[130.4792,33.1076],[130.4595,33.0866]]]}},{"type":"Feature","properties":{"mmi":6.5,"color":"#ffe200"},"geometry":{"type":"MultiLineString","coordinates":[[[130.6591,32.501],[130.6259,32.4957],[130.5856,32.509],[130.5517,32.5422],[130.5377,32.5921],[130.5164,32.6919],[130.5162,32.8415],[130.5286,32.8914],[130.5593,32.9376],[130.7688,33.0743],[130.9805,33.1907],[131.2247,33.2826],[131.3079,33.2923],[131.3411,33.2757],[131.3765,33.224],[131.357,33.091],[131.3659,32.9912],[131.3533,32.908],[131.2463,32.7251],[131.1415,32.6572],[131.0583,32.6395],[130.8587,32.5546],[130.709,32.5261],[130.6591,32.501]]]}},{"type":"Feature","properties":{"mmi":7.0,"color":"#ffc600"},"geometry":{"type":"MultiLineString","coordinates":[[[130.7423,32.5712],[130.6758,32.5608],[130.6259,32.5914],[130.5926,32.6386],[130.58,32.7251],[130.5926,32.8249],[130.6461,32.908],[130.7625,33.0078],[131.0251,33.1265],[131.1249,33.1247],[131.176,33.091],[131.2613,32.9746],[131.253,32.8914],[131.2247,32.8385],[131.1415,32.7555],[131.0417,32.6831],[130.7423,32.5712]]]}},{"type":"Feature","properties":{"mmi":7.5,"color":"#ffaa00"},"geometry":{"type":"MultiLineString","coordinates":[[[130.7423,32.6253],[130.6758,32.649],[130.6327,32.7251],[130.6506,32.7916],[130.7675,32.9413],[130.8819,33.0244],[130.9918,33.0432],[131.0916,33.0315],[131.1415,32.9902],[131.1681,32.9413],[131.1663,32.908],[131.1079,32.8415],[130.8421,32.6637],[130.7423,32.6253]]]}},{"type":"Feature","properties":{"mmi":8.0,"color":"#ff9100"},"geometry":{"type":"MultiLineString","coordinates":[[[130.8255,32.7185],[130.7922,32.7172],[130.7394,32.7584],[130.7408,32.7916],[130.7849,32.8582],[130.9419,32.9572],[130.9918,32.9683],[131.0405,32.9579],[131.0711,32.908],[131.0486,32.8582],[130.8255,32.7185]]]}}]}